start=new Date('2023-06-18T00:00:00.000Z').valueOf();
sats=[{"ARG_OF_PERICENTER":"92.2743","TLE_LINE2":"2 56318  97.6551 169.9212 0002206  92.2743  68.5503 15.01241728  1307","MEAN_MOTION_DOT":"0.00040161","OBJECT_TYPE":"PAYLOAD","NORAD_CAT_ID":"56318","BSTAR":"0.00311500000000","PERIOD":"95.921","APOAPSIS":"564.599","INCLINATION":"97.6551","FILE":"3935891","CENTER_NAME":"EARTH","EPOCH":"2023-06-17T22:00:01.999584","REV_AT_EPOCH":"130","MEAN_ANOMALY":"68.5503","CLASSIFICATION_TYPE":"U","MEAN_MOTION":"15.01241728","SITE":"AFWTR","MEAN_ELEMENT_THEORY":"SGP4","ECCENTRICITY":"0.00022060","REF_FRAME":"TEME","PERIAPSIS":"561.537","RCS_SIZE":"LARGE","DECAY_DATE":null,"ELEMENT_SET_NO":"999","OBJECT_ID":"2023-058B","RA_OF_ASC_NODE":"169.9212","SEMIMAJOR_AXIS":"6941.203","MEAN_MOTION_DDOT":"0.0000000000000","EPHEMERIS_TYPE":"0","LAUNCH_DATE":"2023-04-27","COUNTRY_CODE":"US","GP_ID":"234173989","TIME_SYSTEM":"UTC","OBJECT_NAME":"STARLINK-5954","TLE_LINE1":"1 56318U 23058B   23168.91668981  .00040161  00000-0  31150-2 0  9993"},{"ARG_OF_PERICENTER":"100.6435","TLE_LINE2":"2 56319  97.6551 169.9260 0001754 100.6435  70.1790 15.01211698  1300","MEAN_MOTION_DOT":"0.00068639","OBJECT_TYPE":"PAYLOAD","NORAD_CAT_ID":"56319","BSTAR":"0.00530340000000","PERIOD":"95.923","APOAPSIS":"564.378","INCLINATION":"97.6551","FILE":"3935891","EPOCH":"2023-06-17T22:00:01.999584","CENTER_NAME":"EARTH","REV_AT_EPOCH":"130","CLASSIFICATION_TYPE":"U","MEAN_ANOMALY":"70.1790","SITE":"AFWTR","MEAN_MOTION":"15.01211698","MEAN_ELEMENT_THEORY":"SGP4","ECCENTRICITY":"0.00017540","REF_FRAME":"TEME","PERIAPSIS":"561.943","RCS_SIZE":"LARGE","DECAY_DATE":null,"ELEMENT_SET_NO":"999","OBJECT_ID":"2023-058C","RA_OF_ASC_NODE":"169.9260","SEMIMAJOR_AXIS":"6941.296","MEAN_MOTION_DDOT":"0.0000000000000","EPHEMERIS_TYPE":"0","LAUNCH_DATE":"2023-04-27","COUNTRY_CODE":"US","GP_ID":"234174741","TIME_SYSTEM":"UTC","OBJECT_NAME":"STARLINK-6039","TLE_LINE1":"1 56319U 23058C   23168.91668981  .00068639  00000-0  53034-2 0  9999"},{"PERIAPSIS":"561.829","REF_FRAME":"TEME","RA_OF_ASC_NODE":"169.9250","OBJECT_ID":"2023-058D","SEMIMAJOR_AXIS":"6941.208","ELEMENT_SET_NO":"999","RCS_SIZE":"LARGE","DECAY_DATE":null,"GP_ID":"234175491","COUNTRY_CODE":"US","LAUNCH_DATE":"2023-04-27","MEAN_MOTION_DDOT":"0.0000000000000","EPHEMERIS_TYPE":"0","TLE_LINE1":"1 56320U 23058D   23168.91668981  .00041096  00000-0  31872-2 0  9995","OBJECT_NAME":"STARLINK-5988","TIME_SYSTEM":"UTC","NORAD_CAT_ID":"56320","BSTAR":"0.00318720000000","OBJECT_TYPE":"PAYLOAD","MEAN_MOTION_DOT":"0.00041096","TLE_LINE2":"2 56320  97.6551 169.9250 0001792  89.6587  79.8472 15.01240270  1308","ARG_OF_PERICENTER":"89.6587","PERIOD":"95.921","CLASSIFICATION_TYPE":"U","MEAN_ANOMALY":"79.8472","REV_AT_EPOCH":"130","FILE":"3935891","INCLINATION":"97.6551","EPOCH":"2023-06-17T22:00:01.999584","CENTER_NAME":"EARTH","APOAPSIS":"564.317","ECCENTRICITY":"0.00017920","MEAN_ELEMENT_THEORY":"SGP4","SITE":"AFWTR","MEAN_MOTION":"15.01240270"},{"REV_AT_EPOCH":"130","CLASSIFICATION_TYPE":"U","MEAN_ANOMALY":"103.9516","APOAPSIS":"564.389","INCLINATION":"97.6548","FILE":"3935891","EPOCH":"2023-06-17T22:00:01.999584","CENTER_NAME":"EARTH","ECCENTRICITY":"0.00017770","SITE":"AFWTR","MEAN_MOTION":"15.01213339","MEAN_ELEMENT_THEORY":"SGP4","OBJECT_TYPE":"PAYLOAD","NORAD_CAT_ID":"56321","BSTAR":"0.00526370000000","ARG_OF_PERICENTER":"96.8761","MEAN_MOTION_DOT":"0.00068123","TLE_LINE2":"2 56321  97.6548 169.9391 0001777  96.8761 103.9516 15.01213339  1302","PERIOD":"95.922","COUNTRY_CODE":"US","GP_ID":"234174239","MEAN_MOTION_DDOT":"0.0000000000000","EPHEMERIS_TYPE":"0","LAUNCH_DATE":"2023-04-27","TLE_LINE1":"1 56321U 23058E   23168.91668981  .00068123  00000-0  52637-2 0  9998","TIME_SYSTEM":"UTC","OBJECT_NAME":"STARLINK-5876","PERIAPSIS":"561.922","REF_FRAME":"TEME","RA_OF_ASC_NODE":"169.9391","OBJECT_ID":"2023-058E","SEMIMAJOR_AXIS":"6941.291","RCS_SIZE":"LARGE","DECAY_DATE":null,"ELEMENT_SET_NO":"999"},{"FILE":"3935891","INCLINATION":"97.6548","CENTER_NAME":"EARTH","EPOCH":"2023-06-17T22:00:01.999584","APOAPSIS":"564.236","MEAN_ANOMALY":"62.2430","CLASSIFICATION_TYPE":"U","REV_AT_EPOCH":"130","MEAN_ELEMENT_THEORY":"SGP4","MEAN_MOTION":"15.01224922","SITE":"AFWTR","ECCENTRICITY":"0.00016080","MEAN_MOTION_DOT":"0.00067799","TLE_LINE2":"2 56322  97.6548 169.9168 0001608  88.5046  62.2430 15.01224922  1304","ARG_OF_PERICENTER":"88.5046","NORAD_CAT_ID":"56322","BSTAR":"0.00523740000000","OBJECT_TYPE":"PAYLOAD","PERIOD":"95.922","LAUNCH_DATE":"2023-04-27","MEAN_MOTION_DDOT":"0.0000000000000","EPHEMERIS_TYPE":"0","GP_ID":"234174489","COUNTRY_CODE":"US","OBJECT_NAME":"STARLINK-6033","TIME_SYSTEM":"UTC","TLE_LINE1":"1 56322U 23058F   23168.91668981  .00067799  00000-0  52374-2 0  9995","REF_FRAME":"TEME","PERIAPSIS":"562.004","ELEMENT_SET_NO":"999","RCS_SIZE":"LARGE","DECAY_DATE":null,"OBJECT_ID":"2023-058F","RA_OF_ASC_NODE":"169.9168","SEMIMAJOR_AXIS":"6941.255"},{"TIME_SYSTEM":"UTC","OBJECT_NAME":"STARLINK-6035","TLE_LINE1":"1 56323U 23058G   23168.91668981  .00058929  00000-0  45578-2 0  9999","MEAN_MOTION_DDOT":"0.0000000000000","EPHEMERIS_TYPE":"0","LAUNCH_DATE":"2023-04-27","COUNTRY_CODE":"US","GP_ID":"234175241","RCS_SIZE":"LARGE","DECAY_DATE":null,"ELEMENT_SET_NO":"999","RA_OF_ASC_NODE":"169.9384","OBJECT_ID":"2023-058G","SEMIMAJOR_AXIS":"6941.238","REF_FRAME":"TEME","PERIAPSIS":"561.655","SITE":"AFWTR","MEAN_MOTION":"15.01230386","MEAN_ELEMENT_THEORY":"SGP4","ECCENTRICITY":"0.00020860","APOAPSIS":"564.551","FILE":"3935891","INCLINATION":"97.6548","EPOCH":"2023-06-17T22:00:01.999584","CENTER_NAME":"EARTH","REV_AT_EPOCH":"130","CLASSIFICATION_TYPE":"U","MEAN_ANOMALY":"108.7977","PERIOD":"95.921","ARG_OF_PERICENTER":"90.7054","TLE_LINE2":"2 56323  97.6548 169.9384 0002086  90.7054 108.7977 15.01230386  1303","MEAN_MOTION_DOT":"0.00058929","OBJECT_TYPE":"PAYLOAD","NORAD_CAT_ID":"56323","BSTAR":"0.00455780000000"},{"ECCENTRICITY":"0.00016720","MEAN_MOTION":"15.01200534","SITE":"AFWTR","MEAN_ELEMENT_THEORY":"SGP4","REV_AT_EPOCH":"130","CLASSIFICATION_TYPE":"U","MEAN_ANOMALY":"86.6186","APOAPSIS":"564.356","FILE":"3935891","INCLINATION":"97.6550","EPOCH":"2023-06-17T22:00:01.999584","CENTER_NAME":"EARTH","PERIOD":"95.923","OBJECT_TYPE":"PAYLOAD","NORAD_CAT_ID":"56324","BSTAR":"0.00554400000000","ARG_OF_PERICENTER":"94.1740","TLE_LINE2":"2 56324  97.6550 169.9303 0001672  94.1740  86.6186 15.01200534  1306","MEAN_MOTION_DOT":"0.00071766","TLE_LINE1":"1 56324U 23058H   23168.91668981  .00071766  00000-0  55440-2 0  9993","TIME_SYSTEM":"UTC","OBJECT_NAME":"STARLINK-6034","COUNTRY_CODE":"US","GP_ID":"234174992","MEAN_MOTION_DDOT":"0.0000000000000","EPHEMERIS_TYPE":"0","LAUNCH_DATE":"2023-04-27","OBJECT_ID":"2023-058H","RA_OF_ASC_NODE":"169.9303","SEMIMAJOR_AXIS":"6941.330","RCS_SIZE":"LARGE","DECAY_DATE":null,"ELEMENT_SET_NO":"999","PERIAPSIS":"562.035","REF_FRAME":"TEME"},{"ARG_OF_PERICENTER":"92.6986","TLE_LINE2":"2 56325  97.6543 169.9519 0001619  92.6986 138.0920 15.01239218  1303","MEAN_MOTION_DOT":"0.00059324","OBJECT_TYPE":"PAYLOAD","BSTAR":"0.00458710000000","NORAD_CAT_ID":"56325","PERIOD":"95.921","APOAPSIS":"564.200","EPOCH":"2023-06-17T22:00:01.999584","CENTER_NAME":"EARTH","INCLINATION":"97.6543","FILE":"3935891","REV_AT_EPOCH":"130","CLASSIFICATION_TYPE":"U","MEAN_ANOMALY":"138.0920","SITE":"AFWTR","MEAN_MOTION":"15.01239218","MEAN_ELEMENT_THEORY":"SGP4","ECCENTRICITY":"0.00016190","REF_FRAME":"TEME","PERIAPSIS":"561.952","DECAY_DATE":null,"RCS_SIZE":"LARGE","ELEMENT_SET_NO":"999","SEMIMAJOR_AXIS":"6941.211","OBJECT_ID":"2023-058J","RA_OF_ASC_NODE":"169.9519","EPHEMERIS_TYPE":"0","MEAN_MOTION_DDOT":"0.0000000000000","LAUNCH_DATE":"2023-04-27","COUNTRY_CODE":"US","GP_ID":"234173740","TIME_SYSTEM":"UTC","OBJECT_NAME":"STARLINK-5981","TLE_LINE1":"1 56325U 23058J   23168.91668981  .00059324  00000-0  45871-2 0  9997"},{"PERIAPSIS":"561.609","REF_FRAME":"TEME","RA_OF_ASC_NODE":"169.8334","OBJECT_ID":"2023-058K","SEMIMAJOR_AXIS":"6940.821","ELEMENT_SET_NO":"999","RCS_SIZE":"LARGE","DECAY_DATE":null,"GP_ID":"234173990","COUNTRY_CODE":"US","LAUNCH_DATE":"2023-04-27","MEAN_MOTION_DDOT":"0.0000000000000","EPHEMERIS_TYPE":"0","TLE_LINE1":"1 56326U 23058K   23168.81472084 -.00024646  00000-0 -19156-2 0  9992","OBJECT_NAME":"STARLINK-5980","TIME_SYSTEM":"UTC","NORAD_CAT_ID":"56326","BSTAR":"-0.00191560000000","OBJECT_TYPE":"PAYLOAD","TLE_LINE2":"2 56326  97.6564 169.8334 0001552 103.3603 256.7795 15.01365573  8368","MEAN_MOTION_DOT":"-0.00024646","ARG_OF_PERICENTER":"103.3603","PERIOD":"95.913","CLASSIFICATION_TYPE":"U","MEAN_ANOMALY":"256.7795","REV_AT_EPOCH":"836","FILE":"3935891","INCLINATION":"97.6564","EPOCH":"2023-06-17T19:33:11.880576","CENTER_NAME":"EARTH","APOAPSIS":"563.764","ECCENTRICITY":"0.00015520","MEAN_ELEMENT_THEORY":"SGP4","MEAN_MOTION":"15.01365573","SITE":"AFWTR"},{"REF_FRAME":"TEME","PERIAPSIS":"561.660","RCS_SIZE":"LARGE","DECAY_DATE":null,"ELEMENT_SET_NO":"999","RA_OF_ASC_NODE":"169.9606","OBJECT_ID":"2023-058L","SEMIMAJOR_AXIS":"6941.238","MEAN_MOTION_DDOT":"0.0000000000000","EPHEMERIS_TYPE":"0","LAUNCH_DATE":"2023-04-27","COUNTRY_CODE":"US","GP_ID":"234174742","TIME_SYSTEM":"UTC","OBJECT_NAME":"STARLINK-5997","TLE_LINE1":"1 56327U 23058L   23168.91668981  .00059085  00000-0  45698-2 0  9990","ARG_OF_PERICENTER":"96.0963","TLE_LINE2":"2 56327  97.6540 169.9606 0002078  96.0963 154.7330 15.01230480  1304","MEAN_MOTION_DOT":"0.00059085","OBJECT_TYPE":"PAYLOAD","NORAD_CAT_ID":"56327","BSTAR":"0.00456980000000","PERIOD":"95.921","APOAPSIS":"564.545","INCLINATION":"97.6540","FILE":"3935891","EPOCH":"2023-06-17T22:00:01.999584","CENTER_NAME":"EARTH","REV_AT_EPOCH":"130","MEAN_ANOMALY":"154.7330","CLASSIFICATION_TYPE":"U","SITE":"AFWTR","MEAN_MOTION":"15.01230480","MEAN_ELEMENT_THEORY":"SGP4","ECCENTRICITY":"0.00020780"}];
